OBJECT_NAME,OBJECT_ID,EPOCH,MEAN_MOTION,ECCENTRICITY,INCLINATION,RA_OF_ASC_NODE,ARG_OF_PERICENTER,MEAN_ANOMALY,EPHEMERIS_TYPE,CLASSIFICATION_TYPE,NORAD_CAT_ID,ELEMENT_SET_NO,REV_AT_EPOCH,BSTAR,MEAN_MOTION_DOT,MEAN_MOTION_DDOT
M2 PATHFINDER,2020-037E,2026-07-17T12:04:21.086112,15.04794835,.00126998,97.8140,30.0778,55.2846,304.9574,0,U,45727,999,33005,.4942323E-4,.634E-5,0
NETSAT-4,2020-068U,2026-07-17T12:18:40.512096,15.44804846,.0005022,97.8604,209.2132,185.0883,175.0315,0,U,46504,999,32045,.21295488E-3,.9879E-4,0
NETSAT-3,2020-068V,2026-07-17T11:27:14.908896,15.43656334,.00041309,97.8655,207.3542,201.2303,158.8772,0,U,46505,999,32035,.21578815E-3,.9627E-4,0
NETSAT-1,2020-068W,2026-07-17T10:45:39.163680,15.35276284,.00025777,97.8756,201.2899,249.1069,110.9897,0,U,46506,999,31994,.19125795E-3,.6461E-4,0
NETSAT-2,2020-068X,2026-07-17T13:44:59.599392,15.47228961,.00025078,97.8615,209.2904,198.2250,161.8909,0,U,46507,999,32043,.26231301E-3,.13253E-3,0
GREENCUBE (IO-117),2022-080E,2026-07-17T05:19:51.691584,6.42583336,.00090719,70.1407,287.8015,282.9900,76.9746,0,U,53109,999,9399,0,-.3E-7,0
SITRO-AIS 5 (KATYS),2023-091L,2026-07-17T14:47:46.292928,15.30095185,.00104086,97.5040,262.8169,3.8268,356.3050,0,U,57176,999,16899,.20514436E-3,.5905E-4,0
SITRO-AIS 6 (CHIRKIN),2023-091AC,2026-07-17T14:25:46.142400,15.26462318,.0010917,97.5048,261.7566,8.2411,351.9005,0,U,57192,999,16892,.19273437E-3,.4957E-4,0
SITRO-AIS 8 (ANOKHIN),2023-091AD,2026-07-17T13:53:55.965408,15.32894834,.00092402,97.5036,264.4944,359.2884,0.8343,0,U,57193,999,16910,.22439139E-3,.7057E-4,0
SITRO-AIS 7 (FARTUSHNIY),2023-091AE,2026-07-17T14:39:27.613728,15.26135701,.00108817,97.5045,261.5749,9.4311,350.7129,0,U,57194,999,16891,.18564586E-3,.4725E-4,0
SITRO-AIS 10 (BURDAEV),2023-091AK,2026-07-17T14:37:59.733696,15.39682370,.00046718,97.5062,269.9014,330.5681,29.5301,0,U,57199,999,16944,.27616889E-3,.10824E-3,0
SITRO-AIS 9 (SHCHUKIN),2023-091AM,2026-07-17T13:56:42.770976,15.39165449,.00049395,97.5060,269.5775,331.2636,28.8337,0,U,57201,999,16942,.26157288E-3,.10074E-3,0
SITRO-AIS 12 (SMIRENNIY),2023-091AQ,2026-07-17T15:08:27.860064,15.39461763,.00045009,97.5074,270.1150,323.0322,37.0612,0,U,57204,999,16945,.25901116E-3,.10072E-3,0
SITRO-AIS 11 (SHEFFER),2023-091AU,2026-07-17T15:15:24.028128,15.39907652,.00044371,97.5072,270.3861,322.3372,37.7562,0,U,57208,999,16947,.27179272E-3,.1073E-3,0
SITRO-AIS 25,2024-039R,2026-07-17T14:11:53.117664,14.93650834,.01429724,95.3890,255.9855,221.0469,137.9930,0,U,59066,999,12926,.12959327E-3,.1639E-4,0
SITRO-AIS 26,2024-039S,2026-07-17T14:19:53.963040,14.93442078,.0143302,95.3891,255.8807,221.6455,137.3790,0,U,59067,999,12925,.11317062E-3,.1419E-4,0
SITRO-AIS 27,2024-039T,2026-07-17T15:01:09.794784,14.93865626,.01424133,95.3896,256.1863,220.0502,139.0156,0,U,59068,999,12928,.11748611E-3,.1489E-4,0
SITRO-AIS 28,2024-039U,2026-07-17T14:27:41.840640,14.93900681,.0142275,95.3895,256.2193,219.9843,139.0840,0,U,59071,999,12928,.10924974E-3,.1383E-4,0
GRBBETA,2024-128C,2026-07-17T03:36:26.242272,15.06815785,.00367771,61.9898,111.1258,141.0827,219.2924,0,U,60237,999,11078,.12511212E-3,.1679E-4,0
OOV-CUBE (TUBSAT-30),2024-128F,2026-07-17T01:31:24.458592,15.02878305,.00408781,61.9940,121.3870,140.4347,219.9741,0,U,60240,999,11060,.85234402E-4,.952E-5,0
ROBUSTA-3A (MEDITERRANEE),2024-128J,2026-07-17T03:53:57.056352,15.12002416,.003789,61.9863,102.2147,134.0592,226.3635,0,U,60243,999,11095,.21674701E-3,.3574E-4,0
LASARSAT,2024-247Q,2026-07-16T02:15:08.659008,15.48082110,.00074765,44.9739,99.5612,171.6523,188.4493,0,U,62391,999,8779,.39100475E-3,.20669E-3,0
CROCUBE,2024-247T,2026-07-17T02:02:17.543328,15.50291791,.0007819,44.9718,90.7884,184.7174,175.3645,0,U,62394,999,8798,.4382351E-3,.25129E-3,0
FORESAIL-1 PRIME,2025-276DS,2026-07-17T04:05:35.310912,15.18947700,.00027374,97.4189,270.8955,40.2765,319.8672,0,U,66778,999,3495,.11111914E-3,.2254E-4,0
KNACKSAT-2,1998-067XZ,2026-07-17T05:47:37.450752,15.62548905,.00079517,51.6276,143.0009,335.1166,24.9444,0,U,67683,999,2497,.37882976E-3,.34112E-3,0
