M2 PATHFINDER           
1 45727U 20037E   26198.50302183  .00000634  00000+0  49423-4 0  9993
2 45727  97.8140  30.0778 0012699  55.2846 304.9574 15.04794835330057
NETSAT-4                
1 46504U 20068U   26198.51296889  .00009879  00000+0  21295-3 0  9993
2 46504  97.8604 209.2132 0005022 185.0883 175.0315 15.44804846320456
NETSAT-3                
1 46505U 20068V   26198.47725589  .00009627  00000+0  21579-3 0  9999
2 46505  97.8655 207.3542 0004130 201.2303 158.8772 15.43656334320355
NETSAT-1                
1 46506U 20068W   26198.44836995  .00006461  00000+0  19126-3 0  9999
2 46506  97.8756 201.2899 0002577 249.1069 110.9897 15.35276284319942
NETSAT-2                
1 46507U 20068X   26198.57291203  .00013253  00000+0  26231-3 0  9993
2 46507  97.8615 209.2904 0002507 198.2250 161.8909 15.47228961320438
GREENCUBE (IO-117)      
1 53109U 22080E   26198.22212606 -.00000003  00000+0  00000+0 0  9999
2 53109  70.1407 287.8015 0009071 282.9900  76.9746  6.42583336 93996
SITRO-AIS 5 (KATYS)     
1 57176U 23091L   26198.61650802  .00005905  00000+0  20514-3 0  9998
2 57176  97.5040 262.8169 0010408   3.8268 356.3050 15.30095185168999
SITRO-AIS 6 (CHIRKIN)   
1 57192U 23091AC  26198.60122850  .00004957  00000+0  19273-3 0  9998
2 57192  97.5048 261.7566 0010917   8.2411 351.9005 15.26462318168923
SITRO-AIS 8 (ANOKHIN)   
1 57193U 23091AD  26198.57911997  .00007057  00000+0  22439-3 0  9995
2 57193  97.5036 264.4944 0009240 359.2884   0.8343 15.32894834169106
SITRO-AIS 7 (FARTUSHNIY)
1 57194U 23091AE  26198.61073627  .00004725  00000+0  18565-3 0  9994
2 57194  97.5045 261.5749 0010881   9.4311 350.7129 15.26135701168911
SITRO-AIS 10 (BURDAEV)  
1 57199U 23091AK  26198.60971914  .00010824  00000+0  27617-3 0  9999
2 57199  97.5062 269.9014 0004671 330.5681  29.5301 15.39682370169445
SITRO-AIS 9 (SHCHUKIN)  
1 57201U 23091AM  26198.58105059  .00010074  00000+0  26157-3 0  9994
2 57201  97.5060 269.5775 0004939 331.2636  28.8337 15.39165449169424
SITRO-AIS 12 (SMIRENNIY)
1 57204U 23091AQ  26198.63087801  .00010072  00000+0  25901-3 0  9991
2 57204  97.5074 270.1150 0004500 323.0322  37.0612 15.39461763169451
SITRO-AIS 11 (SHEFFER)  
1 57208U 23091AU  26198.63569477  .00010730  00000+0  27179-3 0  9999
2 57208  97.5072 270.3861 0004437 322.3372  37.7562 15.39907652169475
SITRO-AIS 25            
1 59066U 24039R   26198.59158701  .00001639  00000+0  12959-3 0  9993
2 59066  95.3890 255.9855 0142972 221.0469 137.9930 14.93650834129265
SITRO-AIS 26            
1 59067U 24039S   26198.59715235  .00001419  00000+0  11317-3 0  9998
2 59067  95.3891 255.8807 0143302 221.6455 137.3790 14.93442078129258
SITRO-AIS 27            
1 59068U 24039T   26198.62580781  .00001489  00000+0  11749-3 0  9995
2 59068  95.3896 256.1863 0142413 220.0502 139.0156 14.93865626129284
SITRO-AIS 28            
1 59071U 24039U   26198.60256760  .00001383  00000+0  10925-3 0  9992
2 59071  95.3895 256.2193 0142275 219.9843 139.0840 14.93900681129286
GRBBETA                 
1 60237U 24128C   26198.15030373  .00001679  00000+0  12511-3 0  9998
2 60237  61.9898 111.1258 0036777 141.0827 219.2924 15.06815785110785
OOV-CUBE (TUBSAT-30)    
1 60240U 24128F   26198.06347753  .00000952  00000+0  85234-4 0  9991
2 60240  61.9940 121.3870 0040878 140.4347 219.9741 15.02878305110605
ROBUSTA-3A (MEDITERRAN*)
1 60243U 24128J   26198.16246593  .00003574  00000+0  21675-3 0  9996
2 60243  61.9863 102.2147 0037890 134.0592 226.3635 15.12002416110953
LASARSAT                
1 62391U 24247Q   26197.09385022  .00020669  00000+0  39100-3 0  9992
2 62391  44.9739  99.5612 0007476 171.6523 188.4493 15.48082110 87798
CROCUBE                 
1 62394U 24247T   26198.08492527  .00025129  00000+0  43824-3 0  9998
2 62394  44.9718  90.7884 0007819 184.7174 175.3645 15.50291791 87985
FORESAIL-1 PRIME        
1 66778U 25276DS  26198.17054758  .00002254  00000+0  11112-3 0  9990
2 66778  97.4189 270.8955 0002737  40.2765 319.8672 15.18947700 34952
KNACKSAT-2              
1 67683U 98067XZ  26198.24140568  .00034112  00000+0  37883-3 0  9998
2 67683  51.6276 143.0009 0007951 335.1166  24.9444 15.62548905 24977
